STARLINK-36839          
1 68125U 26044AA  26090.83335647 -.01906052  00000+0 -20965-1 0  9991
2 68125  97.2852  52.0867 0001854  87.9312  47.7033 15.66162015  4914
ECHOSTAR 25             
1 68126U 26045A   26090.72800800  .00000045  00000+0  00000+0 0  9999
2 68126   0.0462 282.5363 0002445 114.8585 284.8954  1.00274968   213
ICOR SV                 
1 68127U 26046A   26090.64697627  .00449472  12179-4  61799-3 0  9995
2 68127 123.0748 306.0854 0097041 227.7490 131.5323 15.96793092  3090
FIREFLY ALPHA R/B       
1 68128U 26046B   26090.53460066  .00044192  00000+0  59065-3 0  9997
2 68128 123.0935 301.4012 0016666  23.4802 336.7017 15.57494958  3046
GUOWANG GROUP 20 OBJECT*
1 68129U 26047A   26086.61766448 -.00000101  00000+0  34814-4 0  9995
2 68129  50.0073 357.5704 0001326 229.8596 130.2189 13.95400488  2083
GUOWANG GROUP 20 OBJECT*
1 68130U 26047B   26085.75628566 -.00000072  00000+0  55036-4 0  9995
2 68130  50.0066   1.0171 0000428 307.3036  52.7826 13.96591410  1957
GUOWANG GROUP 20 OBJECT*
1 68131U 26047C   26085.82615450 -.00000111  00000+0  27090-4 0  9995
2 68131  49.9996   0.7054 0000048  49.5998 310.4907 13.96862690  1970
GUOWANG GROUP 20 OBJECT*
1 68132U 26047D   26083.82212781 -.00000102  00000+0  32409-4 0  9994
2 68132  50.0048   8.7665 0002416   7.3102 352.7836 14.00513037  1680
GUOWANG GROUP 20 OBJECT*
1 68133U 26047E   26089.09734757 -.00000106  00000+0  29276-4 0  9994
2 68133  49.9775 347.4440 0030769  44.8262 315.5120 14.01483768  2439
GUOWANG GROUP 20 OBJECT*
1 68134U 26047F   26083.10517479 -.00000032  00000+0  77668-4 0  9997
2 68134  50.0123  11.6502 0000475 222.9253 137.1614 14.01903676  1585
GUOWANG GROUP 20 OBJECT*
1 68135U 26047G   26085.74432800  .00000018  00000+0  11069-3 0  9999
2 68135  50.0409   0.8903 0004806 213.0056 147.0548 14.01583953  1962
GUOWANG GROUP 20 OBJECT*
1 68136U 26047H   26084.03205513 -.00000099  00000+0  33918-4 0  9998
2 68136  49.9530   7.8688 0014532 103.7924 256.4596 14.01074305  1715
GUOWANG GROUP 20 OBJECT*
1 68137U 26047J   26088.24973303 -.00000122  00000+0  19245-4 0  9999
2 68137  50.0061 350.8887 0000982 211.4979 148.5862 13.93924120  2314
CZ-8A R/B               
1 68138U 26047K   26090.83507906 -.00000107  00000+0  25502-4 0  9996
2 68138  49.9536 339.1019 0044757 214.3524 145.4487 14.12232407  2683
SHIYAN-30 03            
1 68139U 26048A   26090.45737155  .00003645  00000+0  35764-3 0  9996
2 68139  35.0016  13.6117 0002848  22.3389 337.7439 14.91743618  2756
SHIYAN-30 04            
1 68140U 26048B   26090.45806414  .00003502  00000+0  34365-3 0  9991
2 68140  34.9930  13.6116 0001353  18.4637 341.6117 14.91751464  2757
