[{"OBJECT_NAME":"STARLINK-36839","OBJECT_ID":"2026-044AA","EPOCH":"2026-03-31T20:00:01.999008","MEAN_MOTION":15.66162015,"ECCENTRICITY":0.0001854,"INCLINATION":97.2852,"RA_OF_ASC_NODE":52.0867,"ARG_OF_PERICENTER":87.9312,"MEAN_ANOMALY":47.7033,"EPHEMERIS_TYPE":0,"CLASSIFICATION_TYPE":"U","NORAD_CAT_ID":68125,"ELEMENT_SET_NO":999,"REV_AT_EPOCH":491,"BSTAR":-0.020965,"MEAN_MOTION_DOT":-0.01906052,"MEAN_MOTION_DDOT":0},{"OBJECT_NAME":"ECHOSTAR 25","OBJECT_ID":"2026-045A","EPOCH":"2026-03-31T17:28:19.891200","MEAN_MOTION":1.00274968,"ECCENTRICITY":0.0002445,"INCLINATION":0.0462,"RA_OF_ASC_NODE":282.5363,"ARG_OF_PERICENTER":114.8585,"MEAN_ANOMALY":284.8954,"EPHEMERIS_TYPE":0,"CLASSIFICATION_TYPE":"U","NORAD_CAT_ID":68126,"ELEMENT_SET_NO":999,"REV_AT_EPOCH":21,"BSTAR":0,"MEAN_MOTION_DOT":4.5e-7,"MEAN_MOTION_DDOT":0},{"OBJECT_NAME":"ICOR SV","OBJECT_ID":"2026-046A","EPOCH":"2026-03-31T15:31:38.749728","MEAN_MOTION":15.96793092,"ECCENTRICITY":0.0097041,"INCLINATION":123.0748,"RA_OF_ASC_NODE":306.0854,"ARG_OF_PERICENTER":227.749,"MEAN_ANOMALY":131.5323,"EPHEMERIS_TYPE":0,"CLASSIFICATION_TYPE":"U","NORAD_CAT_ID":68127,"ELEMENT_SET_NO":999,"REV_AT_EPOCH":309,"BSTAR":0.00061799,"MEAN_MOTION_DOT":0.00449472,"MEAN_MOTION_DDOT":1.2179e-5},{"OBJECT_NAME":"FIREFLY ALPHA R/B","OBJECT_ID":"2026-046B","EPOCH":"2026-03-31T12:49:49.497024","MEAN_MOTION":15.57494958,"ECCENTRICITY":0.00166669,"INCLINATION":123.0935,"RA_OF_ASC_NODE":301.4012,"ARG_OF_PERICENTER":23.4802,"MEAN_ANOMALY":336.7017,"EPHEMERIS_TYPE":0,"CLASSIFICATION_TYPE":"U","NORAD_CAT_ID":68128,"ELEMENT_SET_NO":999,"REV_AT_EPOCH":304,"BSTAR":0.00059065204,"MEAN_MOTION_DOT":0.00044192,"MEAN_MOTION_DDOT":0},{"OBJECT_NAME":"GUOWANG GROUP 20 OBJECT A","OBJECT_ID":"2026-047A","EPOCH":"2026-03-27T14:49:26.211072","MEAN_MOTION":13.95400488,"ECCENTRICITY":0.0001326,"INCLINATION":50.0073,"RA_OF_ASC_NODE":357.5704,"ARG_OF_PERICENTER":229.8596,"MEAN_ANOMALY":130.2189,"EPHEMERIS_TYPE":0,"CLASSIFICATION_TYPE":"U","NORAD_CAT_ID":68129,"ELEMENT_SET_NO":999,"REV_AT_EPOCH":208,"BSTAR":3.4814e-5,"MEAN_MOTION_DOT":-1.01e-6,"MEAN_MOTION_DDOT":0},{"OBJECT_NAME":"GUOWANG GROUP 20 OBJECT B","OBJECT_ID":"2026-047B","EPOCH":"2026-03-26T18:09:03.081024","MEAN_MOTION":13.9659141,"ECCENTRICITY":4.28e-5,"INCLINATION":50.0066,"RA_OF_ASC_NODE":1.0171,"ARG_OF_PERICENTER":307.3036,"MEAN_ANOMALY":52.7826,"EPHEMERIS_TYPE":0,"CLASSIFICATION_TYPE":"U","NORAD_CAT_ID":68130,"ELEMENT_SET_NO":999,"REV_AT_EPOCH":195,"BSTAR":5.5036e-5,"MEAN_MOTION_DOT":-7.2e-7,"MEAN_MOTION_DDOT":0},{"OBJECT_NAME":"GUOWANG GROUP 20 OBJECT C","OBJECT_ID":"2026-047C","EPOCH":"2026-03-26T19:49:39.748800","MEAN_MOTION":13.9686269,"ECCENTRICITY":4.8e-6,"INCLINATION":49.9996,"RA_OF_ASC_NODE":0.7054,"ARG_OF_PERICENTER":49.5998,"MEAN_ANOMALY":310.4907,"EPHEMERIS_TYPE":0,"CLASSIFICATION_TYPE":"U","NORAD_CAT_ID":68131,"ELEMENT_SET_NO":999,"REV_AT_EPOCH":197,"BSTAR":2.709e-5,"MEAN_MOTION_DOT":-1.11e-6,"MEAN_MOTION_DDOT":0},{"OBJECT_NAME":"GUOWANG GROUP 20 OBJECT D","OBJECT_ID":"2026-047D","EPOCH":"2026-03-24T19:43:51.842784","MEAN_MOTION":14.00513037,"ECCENTRICITY":0.00024162,"INCLINATION":50.0048,"RA_OF_ASC_NODE":8.7665,"ARG_OF_PERICENTER":7.3102,"MEAN_ANOMALY":352.7836,"EPHEMERIS_TYPE":0,"CLASSIFICATION_TYPE":"U","NORAD_CAT_ID":68132,"ELEMENT_SET_NO":999,"REV_AT_EPOCH":168,"BSTAR":3.2408862e-5,"MEAN_MOTION_DOT":-1.02e-6,"MEAN_MOTION_DDOT":0},{"OBJECT_NAME":"GUOWANG GROUP 20 OBJECT E","OBJECT_ID":"2026-047E","EPOCH":"2026-03-30T02:20:10.830048","MEAN_MOTION":14.01483768,"ECCENTRICITY":0.00307696,"INCLINATION":49.9775,"RA_OF_ASC_NODE":347.444,"ARG_OF_PERICENTER":44.8262,"MEAN_ANOMALY":315.512,"EPHEMERIS_TYPE":0,"CLASSIFICATION_TYPE":"U","NORAD_CAT_ID":68133,"ELEMENT_SET_NO":999,"REV_AT_EPOCH":243,"BSTAR":2.9276056e-5,"MEAN_MOTION_DOT":-1.06e-6,"MEAN_MOTION_DDOT":0},{"OBJECT_NAME":"GUOWANG GROUP 20 OBJECT F","OBJECT_ID":"2026-047F","EPOCH":"2026-03-24T02:31:27.101856","MEAN_MOTION":14.01903676,"ECCENTRICITY":4.752e-5,"INCLINATION":50.0123,"RA_OF_ASC_NODE":11.6502,"ARG_OF_PERICENTER":222.9253,"MEAN_ANOMALY":137.1614,"EPHEMERIS_TYPE":0,"CLASSIFICATION_TYPE":"U","NORAD_CAT_ID":68134,"ELEMENT_SET_NO":999,"REV_AT_EPOCH":158,"BSTAR":7.7668349e-5,"MEAN_MOTION_DOT":-3.2e-7,"MEAN_MOTION_DDOT":0},{"OBJECT_NAME":"GUOWANG GROUP 20 OBJECT G","OBJECT_ID":"2026-047G","EPOCH":"2026-03-26T17:51:49.939200","MEAN_MOTION":14.01583953,"ECCENTRICITY":0.00048065,"INCLINATION":50.0409,"RA_OF_ASC_NODE":0.8903,"ARG_OF_PERICENTER":213.0056,"MEAN_ANOMALY":147.0548,"EPHEMERIS_TYPE":0,"CLASSIFICATION_TYPE":"U","NORAD_CAT_ID":68135,"ELEMENT_SET_NO":999,"REV_AT_EPOCH":196,"BSTAR":0.00011069373,"MEAN_MOTION_DOT":1.8e-7,"MEAN_MOTION_DDOT":0},{"OBJECT_NAME":"GUOWANG GROUP 20 OBJECT H","OBJECT_ID":"2026-047H","EPOCH":"2026-03-25T00:46:09.563232","MEAN_MOTION":14.01074305,"ECCENTRICITY":0.0014532,"INCLINATION":49.953,"RA_OF_ASC_NODE":7.8688,"ARG_OF_PERICENTER":103.7924,"MEAN_ANOMALY":256.4596,"EPHEMERIS_TYPE":0,"CLASSIFICATION_TYPE":"U","NORAD_CAT_ID":68136,"ELEMENT_SET_NO":999,"REV_AT_EPOCH":171,"BSTAR":3.3918e-5,"MEAN_MOTION_DOT":-9.9e-7,"MEAN_MOTION_DDOT":0},{"OBJECT_NAME":"GUOWANG GROUP 20 OBJECT J","OBJECT_ID":"2026-047J","EPOCH":"2026-03-29T05:59:36.933792","MEAN_MOTION":13.9392412,"ECCENTRICITY":9.825e-5,"INCLINATION":50.0061,"RA_OF_ASC_NODE":350.8887,"ARG_OF_PERICENTER":211.4979,"MEAN_ANOMALY":148.5862,"EPHEMERIS_TYPE":0,"CLASSIFICATION_TYPE":"U","NORAD_CAT_ID":68137,"ELEMENT_SET_NO":999,"REV_AT_EPOCH":231,"BSTAR":1.9244539e-5,"MEAN_MOTION_DOT":-1.22e-6,"MEAN_MOTION_DDOT":0},{"OBJECT_NAME":"CZ-8A R/B","OBJECT_ID":"2026-047K","EPOCH":"2026-03-31T20:02:30.830784","MEAN_MOTION":14.12232407,"ECCENTRICITY":0.0044757,"INCLINATION":49.9536,"RA_OF_ASC_NODE":339.1019,"ARG_OF_PERICENTER":214.3524,"MEAN_ANOMALY":145.4487,"EPHEMERIS_TYPE":0,"CLASSIFICATION_TYPE":"U","NORAD_CAT_ID":68138,"ELEMENT_SET_NO":999,"REV_AT_EPOCH":268,"BSTAR":2.5502e-5,"MEAN_MOTION_DOT":-1.07e-6,"MEAN_MOTION_DDOT":0},{"OBJECT_NAME":"SHIYAN-30 03","OBJECT_ID":"2026-048A","EPOCH":"2026-03-31T10:58:36.901920","MEAN_MOTION":14.91743618,"ECCENTRICITY":0.0002848,"INCLINATION":35.0016,"RA_OF_ASC_NODE":13.6117,"ARG_OF_PERICENTER":22.3389,"MEAN_ANOMALY":337.7439,"EPHEMERIS_TYPE":0,"CLASSIFICATION_TYPE":"U","NORAD_CAT_ID":68139,"ELEMENT_SET_NO":999,"REV_AT_EPOCH":275,"BSTAR":0.00035764,"MEAN_MOTION_DOT":3.645e-5,"MEAN_MOTION_DDOT":0},{"OBJECT_NAME":"SHIYAN-30 04","OBJECT_ID":"2026-048B","EPOCH":"2026-03-31T10:59:36.741696","MEAN_MOTION":14.91751464,"ECCENTRICITY":0.0001353,"INCLINATION":34.993,"RA_OF_ASC_NODE":13.6116,"ARG_OF_PERICENTER":18.4637,"MEAN_ANOMALY":341.6117,"EPHEMERIS_TYPE":0,"CLASSIFICATION_TYPE":"U","NORAD_CAT_ID":68140,"ELEMENT_SET_NO":999,"REV_AT_EPOCH":275,"BSTAR":0.00034365,"MEAN_MOTION_DOT":3.502e-5,"MEAN_MOTION_DDOT":0}]
